NORAD_CAT_ID,OBJECT_NAME,OBJECT_TYPE,EPOCH,MEAN_MOTION,ECCENTRICITY,INCLINATION,RA_OF_ASC_NODE,ARG_OF_PERICENTER,MEAN_ANOMALY,BSTAR,MEAN_MOTION_DOT,MEAN_MOTION_DDOT,TLE_LINE0,TLE_LINE1,TLE_LINE2,SEMIMAJOR_AXIS,PERIOD,APOGEE,PERIGEE,DECAYED
53827.0,STARLINK-4764,PAYLOAD,2024-08-20 11:46:12,15.08850256,0.0001544,53.2176,325.9509,108.6221,251.4939,0.00066059,0.00010244,0.0,0 STARLINK-4764,1 53827U 22114K   24233.49042266  .00010244  00000-0  66059-3 0  9992,2 53827  53.2176 325.9509 0001544 108.6221 251.4939 15.08850256107357,6917.849,95.437,540.782,538.646,0.0
53827.0,STARLINK-4764,PAYLOAD,2024-08-21 11:36:59,15.0884117,0.0001425,53.2166,321.491,127.7077,232.4045,0.00031137,4.671e-05,0.0,0 STARLINK-4764,1 53827U 22114K   24234.48402554  .00004671  00000-0  31137-3 0  9998,2 53827  53.2166 321.4910 0001425 127.7077 232.4045 15.08841170106960,6917.877,95.437,540.728,538.756,0.0
